[{"OBJECT_NAME":"STARLINK-5259","OBJECT_ID":"2022-141BE","EPOCH":"2026-03-09T21:28:05.817792","MEAN_MOTION":15.08827948,"ECCENTRICITY":0.0001888,"INCLINATION":53.2209,"RA_OF_ASC_NODE":342.8576,"ARG_OF_PERICENTER":121.5664,"MEAN_ANOMALY":238.5513,"EPHEMERIS_TYPE":0,"CLASSIFICATION_TYPE":"U","NORAD_CAT_ID":54209,"ELEMENT_SET_NO":999,"REV_AT_EPOCH":18617,"BSTAR":-6.0362453e-5,"MEAN_MOTION_DOT":-1.248e-5,"MEAN_MOTION_DDOT":0},{"OBJECT_NAME":"FENGYUN 1C DEB","OBJECT_ID":"1999-025FN","EPOCH":"2026-03-09T22:18:23.675616","MEAN_MOTION":14.79879453,"ECCENTRICITY":0.01939452,"INCLINATION":97.9352,"RA_OF_ASC_NODE":118.672,"ARG_OF_PERICENTER":81.3681,"MEAN_ANOMALY":358.3473,"EPHEMERIS_TYPE":0,"CLASSIFICATION_TYPE":"U","NORAD_CAT_ID":29868,"ELEMENT_SET_NO":999,"REV_AT_EPOCH":1584,"BSTAR":0.0007539816,"MEAN_MOTION_DOT":7.789e-5,"MEAN_MOTION_DDOT":0}]
